CCSDS_OMM_VERS = 2.0
CREATION_DATE  = 
ORIGINATOR     = 

OBJECT_NAME    = SZ-21 MODULE
OBJECT_ID      = 2025-246C
CENTER_NAME    = EARTH
REF_FRAME      = TEME
TIME_SYSTEM    = UTC
MEAN_ELEMENT_THEORY = SGP/SGP4

EPOCH          = 2025-11-28T19:01:18.308064
MEAN_MOTION    = 15.61505105
ECCENTRICITY   = .0005247
INCLINATION    = 41.4759
RA_OF_ASC_NODE = 101.0637
ARG_OF_PERICENTER = 174.1770
MEAN_ANOMALY   = 185.9131

EPHEMERIS_TYPE = 0
CLASSIFICATION_TYPE = U
NORAD_CAT_ID   = 66515
ELEMENT_SET_NO = 999
REV_AT_EPOCH   = 226
BSTAR          = .31952E-3
MEAN_MOTION_DOT = .27933E-3
MEAN_MOTION_DDOT = 0

CCSDS_OMM_VERS = 2.0
CREATION_DATE  = 
ORIGINATOR     = 

OBJECT_NAME    = SHENZHOU-22
OBJECT_ID      = 2025-272A
CENTER_NAME    = EARTH
REF_FRAME      = TEME
TIME_SYSTEM    = UTC
MEAN_ELEMENT_THEORY = SGP/SGP4

EPOCH          = 2025-11-28T14:51:24.103008
MEAN_MOTION    = 15.58366267
ECCENTRICITY   = .00107401
INCLINATION    = 41.4665
RA_OF_ASC_NODE = 102.3779
ARG_OF_PERICENTER = 288.2195
MEAN_ANOMALY   = 71.7474

EPHEMERIS_TYPE = 0
CLASSIFICATION_TYPE = U
NORAD_CAT_ID   = 66645
ELEMENT_SET_NO = 999
REV_AT_EPOCH   = 26168
BSTAR          = .18037201E-3
MEAN_MOTION_DOT = .13824E-3
MEAN_MOTION_DDOT = 0

CCSDS_OMM_VERS = 2.0
CREATION_DATE  = 
ORIGINATOR     = 

OBJECT_NAME    = CZ-2F R/B
OBJECT_ID      = 2025-272B
CENTER_NAME    = EARTH
REF_FRAME      = TEME
TIME_SYSTEM    = UTC
MEAN_ELEMENT_THEORY = SGP/SGP4

EPOCH          = 2025-11-26T11:17:54.506400
MEAN_MOTION    = 16.01945612
ECCENTRICITY   = .01210796
INCLINATION    = 41.4431
RA_OF_ASC_NODE = 114.9009
ARG_OF_PERICENTER = 133.7676
MEAN_ANOMALY   = 227.3272

EPHEMERIS_TYPE = 0
CLASSIFICATION_TYPE = U
NORAD_CAT_ID   = 66646
ELEMENT_SET_NO = 999
REV_AT_EPOCH   = 21
BSTAR          = .29319366E-3
MEAN_MOTION_DOT = .449059E-2
MEAN_MOTION_DDOT = .7567612E-5

CCSDS_OMM_VERS = 2.0
CREATION_DATE  = 
ORIGINATOR     = 

OBJECT_NAME    = SOYUZ-MS 28
OBJECT_ID      = 2025-275A
CENTER_NAME    = EARTH
REF_FRAME      = TEME
TIME_SYSTEM    = UTC
MEAN_ELEMENT_THEORY = SGP/SGP4

EPOCH          = 2025-11-28T22:21:16.003872
MEAN_MOTION    = 15.49177370
ECCENTRICITY   = .0003738
INCLINATION    = 51.6312
RA_OF_ASC_NODE = 210.8341
ARG_OF_PERICENTER = 180.7008
MEAN_ANOMALY   = 179.3975

EPHEMERIS_TYPE = 0
CLASSIFICATION_TYPE = U
NORAD_CAT_ID   = 66664
ELEMENT_SET_NO = 999
REV_AT_EPOCH   = 30
BSTAR          = .17759E-3
MEAN_MOTION_DOT = .9407E-4
MEAN_MOTION_DDOT = 0

CCSDS_OMM_VERS = 2.0
CREATION_DATE  = 
ORIGINATOR     = 

OBJECT_NAME    = SL-4 R/B
OBJECT_ID      = 2025-275B
CENTER_NAME    = EARTH
REF_FRAME      = TEME
TIME_SYSTEM    = UTC
MEAN_ELEMENT_THEORY = SGP/SGP4

EPOCH          = 2025-11-29T08:19:25.067424
MEAN_MOTION    = 16.43094745
ECCENTRICITY   = .0004581
INCLINATION    = 51.6501
RA_OF_ASC_NODE = 207.6669
ARG_OF_PERICENTER = 68.9636
MEAN_ANOMALY   = 291.1882

EPHEMERIS_TYPE = 0
CLASSIFICATION_TYPE = U
NORAD_CAT_ID   = 66665
ELEMENT_SET_NO = 999
REV_AT_EPOCH   = 33
BSTAR          = .39285E-3
MEAN_MOTION_DOT = .8397088E-1
MEAN_MOTION_DDOT = .12512E-4

